ONEWEB-0327             
1 49196U 21083L   23321.81816548 -.00000092  00000+0 -26504-3 0  9997
2 49196  87.9247 162.9369 0002097  81.1252 279.0117 13.18686262105827
ONEWEB-0328             
1 49197U 21083M   23321.75276356  .00000212  00000+0  54434-3 0  9993
2 49197  87.8985 147.7895 0001587  94.2227 265.9084 13.13469116107181
ONEWEB-0331             
1 49198U 21083N   23321.83815474  .00000188  00000+0  44478-3 0  9992
2 49198  87.9154 162.9247 0001806  86.7513 273.3826 13.18684628105816
ONEWEB-0333             
1 49199U 21083P   23321.51895538  .00000269  00000+0  70062-3 0  9995
2 49199  87.8986 147.8387 0001330  81.1940 278.9340 13.13467487107160
ONEWEB-0334             
1 49200U 21083Q   23321.84800651  .00000104  00000+0  22366-3 0  9998
2 49200  87.9170 102.0826 0001046  65.3388 294.7854 13.20770997112404
ONEWEB-0335             
1 49201U 21083R   23321.74323502  .00000359  00000+0  94889-3 0  9994
2 49201  87.8988 147.7828 0001483  94.4105 265.7194 13.13466976107202
ONEWEB-0336             
1 49202U 21083S   23321.94003381 -.00000254  00000+0 -73002-3 0  9997
2 49202  87.8984 147.7418 0001450  83.2134 276.9160 13.13470454107221
ONEWEB-0337             
1 49203U 21083T   23321.79614476  .00000088  00000+0  20478-3 0  9996
2 49203  87.8987 147.7682 0001581  92.4815 267.6495 13.13472048107208
